{"fetched_at":"2026-03-29T16:36:15Z","count":15609,"tles":[{"name":"LEMUR-2-PETERG","line1":"1 42841U 17042S   26087.77455779  .00027311  00000+0  92468-3 0  9992","line2":"2 42841  97.3989 272.8737 0003240 257.6169 102.4709 15.30554708476128","category":"Other"}]}